{
    "links": {
        "self": "http://www.neowsapp.com/rest/v1/neo/3753622?api_key=iIulBulltgU6a56xZRHN4H3l9WmuAYTsLGpBGhQ2"
    },
    "id": "3753622",
    "neo_reference_id": "3753622",
    "name": "(2016 KM1)",
    "designation": "2016 KM1",
    "nasa_jpl_url": "http://ssd.jpl.nasa.gov/sbdb.cgi?sstr=3753622",
    "absolute_magnitude_h": 23.8,
    "estimated_diameter": {
        "kilometers": {
            "estimated_diameter_min": 0.046190746,
            "estimated_diameter_max": 0.1032856481
        },
        "meters": {
            "estimated_diameter_min": 46.1907460282,
            "estimated_diameter_max": 103.2856480504
        },
        "miles": {
            "estimated_diameter_min": 0.0287015901,
            "estimated_diameter_max": 0.0641787064
        },
        "feet": {
            "estimated_diameter_min": 151.544447199,
            "estimated_diameter_max": 338.8636855496
        }
    },
    "is_potentially_hazardous_asteroid": false,
    "close_approach_data": [
        {
            "close_approach_date": "2016-05-31",
            "close_approach_date_full": "2016-May-31 16:47",
            "epoch_date_close_approach": 1464713220000,
            "relative_velocity": {
                "kilometers_per_second": "9.8891740249",
                "kilometers_per_hour": "35601.0264898024",
                "miles_per_hour": "22121.0933763997"
            },
            "miss_distance": {
                "astronomical": "0.1078289961",
                "lunar": "41.9454794829",
                "kilometers": "16130988.140798307",
                "miles": "10023331.2426463566"
            },
            "orbiting_body": "Earth"
        }
    ],
    "orbital_data": {
        "orbit_id": "7",
        "orbit_determination_date": "2017-04-06 08:25:43",
        "first_observation_date": "2016-05-31",
        "last_observation_date": "2016-06-07",
        "data_arc_in_days": 7,
        "observations_used": 28,
        "orbit_uncertainty": "8",
        "minimum_orbit_intersection": ".0743167",
        "jupiter_tisserand_invariant": "3.561",
        "epoch_osculation": "2457540.5",
        "eccentricity": ".4966628892307063",
        "semi_major_axis": "2.106533743617692",
        "inclination": "9.009985220659484",
        "ascending_node_longitude": "64.17710352756873",
        "orbital_period": "1116.737390268891",
        "perihelion_distance": "1.060296608250553",
        "perihelion_argument": "212.2427782345829",
        "aphelion_distance": "3.152770878984831",
        "perihelion_time": "2457560.260330483689",
        "mean_anomaly": "353.6299088432821",
        "mean_motion": ".322367642685733",
        "equinox": "J2000",
        "orbit_class": {
            "orbit_class_type": "AMO",
            "orbit_class_description": "Near-Earth asteroid orbits similar to that of 1221 Amor",
            "orbit_class_range": "1.017 AU < q (perihelion) < 1.3 AU"
        }
    },
    "is_sentry_object": false
}